0 DELTA 1 DEB
1 12427U 78026ET  13281.66702340  .00001426  00000-0  58456-3 0  4003
2 12427 099.0936 174.4577 0134470 053.1695 359.7624 14.23975379720709
0 DELTA 1 DEB
1 12427U 78026ET  13283.93029265  .00001757  00000-0  71582-3 0  4016
2 12427 099.0935 176.7988 0134462 046.7492 081.9519 14.23985899721024
0 DELTA 1 DEB
1 12427U 78026ET  13286.18331676  .00001530  00000-0  62581-3 0  4027
2 12427 099.0935 179.1295 0134412 040.3605 111.6870 14.23993757721341
0 DELTA 1 DEB
1 12427U 78026ET  13288.41310314  .00002447  00000-0  98929-3 0  4035
2 12427 099.0932 181.4363 0134371 034.0354 022.3686 14.24003534721669
0 DELTA 1 DEB
1 12427U 78026ET  13290.53300990  .00002114  00000-0  85711-3 0  4047
2 12427 099.0929 183.6295 0134293 028.0110 089.8531 14.24013131721963
0 DELTA 1 DEB
1 12427U 78026ET  13292.69356221  .00002538  00000-0  10252-2 0  4052
2 12427 099.0926 185.8638 0134283 021.8264 005.8315 14.24020156722273
0 DELTA 1 DEB
1 12427U 78026ET  13295.17711105  .00002919  00000-0  11762-2 0  4065
2 12427 099.0923 188.4333 0134177 014.7761 137.6614 14.24031459722629
